ONEWEB-0300             
1 49089U 21075Q   24176.37561015 -.00000486  00000+0 -13858-2 0  9999
2 49089  87.8940 134.5936 0002431  87.1331 273.0076 13.12443673140398
ONEWEB-0301             
1 49090U 21075R   24176.43565305 -.00000098  00000+0 -30888-3 0  9996
2 49090  87.8941 134.5848 0002347  85.4720 274.6676 13.12442862139763
ONEWEB-0302             
1 49091U 21075S   24176.42266483  .00001488  00000+0  41003-2 0  9993
2 49091  87.8947 134.5851 0001714  78.5783 281.5538 13.12441734139742
ONEWEB-0304             
1 49092U 21075T   24176.48417549 -.00000824  00000+0 -21562-2 0  9994
2 49092  87.9169 149.7419 0001807  84.4736 275.6601 13.17655537138405
ONEWEB-0305             
1 49093U 21075U   24176.47611868 -.00002223  00000+0 -57575-2 0  9992
2 49093  87.9166 149.7294 0001486 102.0878 258.0420 13.17674707138438
ONEWEB-0308             
1 49094U 21075V   24176.41617741  .00000449  00000+0  12134-2 0  9991
2 49094  87.8940 134.5865 0002141  82.0423 278.0948 13.12441281139753
ONEWEB-0309             
1 49095U 21075W   24176.48095248 -.00001716  00000+0 -44523-2 0  9998
2 49095  87.9171 149.7345 0001854  69.4474 290.6857 13.17659602138400
ONEWEB-0310             
1 49096U 21075X   24176.43078671  .00000128  00000+0  32137-3 0  9998
2 49096  87.8950 134.5919 0002008  76.2281 283.9071 13.12440729140384
